{"type": "FeatureCollection", "features": [ {"type": "Feature", "properties": {"norad_id": 66583, "name": "STARLINK-35941", "group": "last-30-days", "lat": 12.682258174253123, "lon": -43.88888785384263, "alt_km": 395.1573442405006, "timestamp": "2025-12-07T18:50:15.514782+00:00", "meta": {"OBJECT_NAME": "STARLINK-35941", "OBJECT_ID": "2025-268AC", "EPOCH": "2025-12-07T06:00:04.999968", "MEAN_MOTION": 15.59235464, "ECCENTRICITY": 0.00017378, "INCLINATION": 43.0003, "RA_OF_ASC_NODE": 153.2499, "ARG_OF_PERICENTER": 269.8804, "MEAN_ANOMALY": 127.7511, "EPHEMERIS_TYPE": 0, "CLASSIFICATION_TYPE": "U", "NORAD_CAT_ID": 66583, "ELEMENT_SET_NO": 999, "REV_AT_EPOCH": 378, "BSTAR": -0.028627982, "MEAN_MOTION_DOT": -0.02023623, "MEAN_MOTION_DDOT": 0}, "tle": {"line1": "1 66583U 25268AC  25341.25005787 -.02023623  00000+0 -28628-1 0  9996", "line2": "2 66583  43.0003 153.2499 0001737 269.8804 127.7511 15.59235464  3784"}}, "geometry": {"type": "Point", "coordinates": [-43.88888785384263, 12.682258174253123]}}, {"type": "Feature", "properties": {"norad_id": 66584, "name": "STARLINK-35939", "group": "last-30-days", "lat": 11.408497375872471, "lon": -42.425203930964116, "alt_km": 395.3780411481821, "timestamp": "2025-12-07T18:50:15.514793+00:00", "meta": {"OBJECT_NAME": "STARLINK-35939", "OBJECT_ID": "2025-268AD", "EPOCH": "2025-12-07T06:00:04.999968", "MEAN_MOTION": 15.59233722, "ECCENTRICITY": 0.00017368, "INCLINATION": 43.0003, "RA_OF_ASC_NODE": 153.2453, "ARG_OF_PERICENTER": 272.8183, "MEAN_ANOMALY": 126.7308, "EPHEMERIS_TYPE": 0, "CLASSIFICATION_TYPE": "U", "NORAD_CAT_ID": 66584, "ELEMENT_SET_NO": 999, "REV_AT_EPOCH": 378, "BSTAR": -0.028579923, "MEAN_MOTION_DOT": -0.02020535, "MEAN_MOTION_DDOT": 0}, "tle": {"line1": "1 66584U 25268AD  25341.25005787 -.02020535  00000+0 -28580-1 0  9993", "line2": "2 66584  43.0003 153.2453 0001736 272.8183 126.7308 15.59233722  3786"}}, "geometry": {"type": "Point", "coordinates": [-42.425203930964116, 11.408497375872471]}}, {"type": "Feature", "properties": {"norad_id": 66585, "name": "STARLINK-35963", "group": "last-30-days", "lat": 10.128972592064567, "lon": -40.9764537363683, "alt_km": 395.54727946955063, "timestamp": "2025-12-07T18:50:15.514803+00:00", "meta": {"OBJECT_NAME": "STARLINK-35963", "OBJECT_ID": "2025-268AE", "EPOCH": "2025-12-07T06:00:04.999968", "MEAN_MOTION": 15.59233667, "ECCENTRICITY": 0.00017243, "INCLINATION": 43, "RA_OF_ASC_NODE": 153.2407, "ARG_OF_PERICENTER": 273.6661, "MEAN_ANOMALY": 127.8007, "EPHEMERIS_TYPE": 0, "CLASSIFICATION_TYPE": "U", "NORAD_CAT_ID": 66585, "ELEMENT_SET_NO": 999, "REV_AT_EPOCH": 378, "BSTAR": -0.028597633, "MEAN_MOTION_DOT": -0.02021616, "MEAN_MOTION_DDOT": 0}, "tle": {"line1": "1 66585U 25268AE  25341.25005787 -.02021616  00000+0 -28598-1 0  9994", "line2": "2 66585  43.0000 153.2407 0001724 273.6661 127.8007 15.59233667  3786"}}, "geometry": {"type": "Point", "coordinates": [-40.9764537363683, 10.128972592064567]}}, {"type": "Feature", "properties": {"norad_id": 66586, "name": "TJS-21", "group": "last-30-days", "lat": 37.85084431675144, "lon": -174.0728224876353, "alt_km": 20506.65996392844, "timestamp": "2025-12-07T18:50:15.514818+00:00", "meta": {"OBJECT_NAME": "TJS-21", "OBJECT_ID": "2025-269A", "EPOCH": "2025-12-06T17:47:41.602272", "MEAN_MOTION": 2.00560491, "ECCENTRICITY": 0.68052367, "INCLINATION": 63.2668, "RA_OF_ASC_NODE": 162.9832, "ARG_OF_PERICENTER": 269.7989, "MEAN_ANOMALY": 18.6583, "EPHEMERIS_TYPE": 0, "CLASSIFICATION_TYPE": "U", "NORAD_CAT_ID": 66586, "ELEMENT_SET_NO": 999, "REV_AT_EPOCH": 32, "BSTAR": -0.014744059, "MEAN_MOTION_DOT": 1.105e-05, "MEAN_MOTION_DDOT": 0}, "tle": {"line1": "1 66586U 25269A   25340.74145373  .00001105  00000+0 -14744-1 0  9991", "line2": "2 66586  63.2668 162.9832 6805236 269.7989  18.6583  2.00560491   328"}}, "geometry": {"type": "Point", "coordinates": [-174.0728224876353, 37.85084431675144]}}, {"type": "Feature", "properties": {"norad_id": 66587, "name": "CZ-3B R/B", "group": "last-30-days", "lat": 37.885358684477026, "lon": -47.88874536897869, "alt_km": 6772.9098496539455, "timestamp": "2025-12-07T18:50:15.514831+00:00", "meta": {"OBJECT_NAME": "CZ-3B R/B", "OBJECT_ID": "2025-269B", "EPOCH": "2025-12-06T20:56:55.417632", "MEAN_MOTION": 2.02680311, "ECCENTRICITY": 0.75198907, "INCLINATION": 51.3598, "RA_OF_ASC_NODE": 171.0029, "ARG_OF_PERICENTER": 227.6683, "MEAN_ANOMALY": 38.3691, "EPHEMERIS_TYPE": 0, "CLASSIFICATION_TYPE": "U", "NORAD_CAT_ID": 66587, "ELEMENT_SET_NO": 999, "REV_AT_EPOCH": 33, "BSTAR": 0.0015659791, "MEAN_MOTION_DOT": 0.00053807, "MEAN_MOTION_DDOT": -4.99023e-07}, "tle": {"line1": "1 66587U 25269B   25340.87286363  .00053807 -49902-6  15660-2 0  9997", "line2": "2 66587  51.3598 171.0029 7519890 227.6683  38.3691  2.02680311   337"}}, "geometry": {"type": "Point", "coordinates": [-47.88874536897869, 37.885358684477026]}}, {"type": "Feature", "properties": {"norad_id": 66588, "name": "STARLINK-36076", "group": "last-30-days", "lat": -8.068899730582649, "lon": -146.8721386611532, "alt_km": 378.3500315155852, "timestamp": "2025-12-07T18:50:15.514843+00:00", "meta": {"OBJECT_NAME": "STARLINK-36076", "OBJECT_ID": "2025-270A", "EPOCH": "2025-12-07T06:00:04.999968", "MEAN_MOTION": 15.65718024, "ECCENTRICITY": 0.0001246, "INCLINATION": 42.999, "RA_OF_ASC_NODE": 225.0742, "ARG_OF_PERICENTER": 262.5919, "MEAN_ANOMALY": 309.4987, "EPHEMERIS_TYPE": 0, "CLASSIFICATION_TYPE": "U", "NORAD_CAT_ID": 66588, "ELEMENT_SET_NO": 999, "REV_AT_EPOCH": 351, "BSTAR": -0.021753702, "MEAN_MOTION_DOT": -0.01991093, "MEAN_MOTION_DDOT": 0}, "tle": {"line1": "1 66588U 25270A   25341.25005787 -.01991093  00000+0 -21754-1 0  9991", "line2": "2 66588  42.9990 225.0742 0001246 262.5919 309.4987 15.65718024  3515"}}, "geometry": {"type": "Point", "coordinates": [-146.8721386611532, -8.068899730582649]}}, {"type": "Feature", "properties": {"norad_id": 66589, "name": "STARLINK-35447", "group": "last-30-days", "lat": -5.476502604201294, "lon": -144.03576400963573, "alt_km": 378.1943948734988, "timestamp": "2025-12-07T18:50:15.514853+00:00", "meta": {"OBJECT_NAME": "STARLINK-35447", "OBJECT_ID": "2025-270B", "EPOCH": "2025-12-07T06:00:04.999968", "MEAN_MOTION": 15.657154, "ECCENTRICITY": 0.00014047, "INCLINATION": 42.9993, "RA_OF_ASC_NODE": 225.0651, "ARG_OF_PERICENTER": 259.5561, "MEAN_ANOMALY": 316.371, "EPHEMERIS_TYPE": 0, "CLASSIFICATION_TYPE": "U", "NORAD_CAT_ID": 66589, "ELEMENT_SET_NO": 999, "REV_AT_EPOCH": 362, "BSTAR": -0.021740183, "MEAN_MOTION_DOT": -0.01989939, "MEAN_MOTION_DDOT": 0}, "tle": {"line1": "1 66589U 25270B   25341.25005787 -.01989939  00000+0 -21740-1 0  9993", "line2": "2 66589  42.9993 225.0651 0001404 259.5561 316.3710 15.65715400  3621"}}, "geometry": {"type": "Point", "coordinates": [-144.03576400963573, -5.476502604201294]}}, {"type": "Feature", "properties": {"norad_id": 66590, "name": "STARLINK-35429", "group": "last-30-days", "lat": -6.774400265564217, "lon": -145.44931424928262, "alt_km": 378.3134211549841, "timestamp": "2025-12-07T18:50:15.514863+00:00", "meta": {"OBJECT_NAME": "STARLINK-35429", "OBJECT_ID": "2025-270C", "EPOCH": "2025-12-07T06:00:04.999968", "MEAN_MOTION": 15.65713802, "ECCENTRICITY": 0.00013659, "INCLINATION": 42.9993, "RA_OF_ASC_NODE": 225.07, "ARG_OF_PERICENTER": 259.2184, "MEAN_ANOMALY": 314.7922, "EPHEMERIS_TYPE": 0, "CLASSIFICATION_TYPE": "U", "NORAD_CAT_ID": 66590, "ELEMENT_SET_NO": 999, "REV_AT_EPOCH": 362, "BSTAR": -0.021710487, "MEAN_MOTION_DOT": -0.01987406, "MEAN_MOTION_DDOT": 0}, "tle": {"line1": "1 66590U 25270C   25341.25005787 -.01987406  00000+0 -21710-1 0  9999", "line2": "2 66590  42.9993 225.0700 0001365 259.2184 314.7922 15.65713802  3623"}}, "geometry": {"type": "Point", "coordinates": [-145.44931424928262, -6.774400265564217]}}, {"type": "Feature", "properties": {"norad_id": 66591, "name": "STARLINK-36058", "group": "last-30-days", "lat": -4.175393386851696, "lon": -142.62816677636724, "alt_km": 378.02105213764025, "timestamp": "2025-12-07T18:50:15.514875+00:00", "meta": {"OBJECT_NAME": "STARLINK-36058", "OBJECT_ID": "2025-270D", "EPOCH": "2025-12-07T06:00:04.999968", "MEAN_MOTION": 15.65716409, "ECCENTRICITY": 0.00013903, "INCLINATION": 42.9994, "RA_OF_ASC_NODE": 225.0605, "ARG_OF_PERICENTER": 261.8376, "MEAN_ANOMALY": 316.0069, "EPHEMERIS_TYPE": 0, "CLASSIFICATION_TYPE": "U", "NORAD_CAT_ID": 66591, "ELEMENT_SET_NO": 999, "REV_AT_EPOCH": 351, "BSTAR": -0.021763804, "MEAN_MOTION_DOT": -0.019919, "MEAN_MOTION_DDOT": 0}, "tle": {"line1": "1 66591U 25270D   25341.25005787 -.01991900  00000+0 -21764-1 0  9993", "line2": "2 66591  42.9994 225.0605 0001390 261.8376 316.0069 15.65716409  3510"}}, "geometry": {"type": "Point", "coordinates": [-142.62816677636724, -4.175393386851696]}}, {"type": "Feature", "properties": {"norad_id": 66592, "name": "STARLINK-36066", "group": "last-30-days", "lat": -2.8707158443228047, "lon": -141.22433814787567, "alt_km": 377.9561853561336, "timestamp": "2025-12-07T18:50:15.514885+00:00", "meta": {"OBJECT_NAME": "STARLINK-36066", "OBJECT_ID": "2025-270E", "EPOCH": "2025-12-07T06:00:04.999968", "MEAN_MOTION": 15.65715696, "ECCENTRICITY": 0.00014346, "INCLINATION": 42.9995, "RA_OF_ASC_NODE": 225.0557, "ARG_OF_PERICENTER": 259.3254, "MEAN_ANOMALY": 320.4337, "EPHEMERIS_TYPE": 0, "CLASSIFICATION_TYPE": "U", "NORAD_CAT_ID": 66592, "ELEMENT_SET_NO": 999, "REV_AT_EPOCH": 341, "BSTAR": -0.021720871, "MEAN_MOTION_DOT": -0.01988429, "MEAN_MOTION_DDOT": 0}, "tle": {"line1": "1 66592U 25270E   25341.25005787 -.01988429  00000+0 -21721-1 0  9999", "line2": "2 66592  42.9995 225.0557 0001434 259.3254 320.4337 15.65715696  3417"}}, "geometry": {"type": "Point", "coordinates": [-141.22433814787567, -2.8707158443228047]}}]}